STARLINK-31153          
1 59044U 24038X   26068.91310336 -.00001011  00000+0 -27224-4 0  9992
2 59044  43.0079  22.1962 0001765 275.4119  84.6531 15.27559391114726
FLOCK 4G-34             
1 62650U 25009AT  26068.73202491  .00013063  00000+0  49338-3 0  9997
2 62650  97.4004 151.0149 0000674 348.8280  11.2944 15.27131464 63729
